STARLINK-30895          
1 58418U 23180S   26068.14532811  .00000076  00000+0  12294-4 0  9991
2 58418  43.0029  55.5420 0001198 279.4238  80.6478 15.27575728127430
ION SCV-017             
1 63230U 25052W   26068.71648816  .00006457  00000+0  24539-3 0  9998
2 63230  97.4016 324.7516 0023746  44.9875 315.3282 15.26881798 54851
